[{"OBJECT_NAME":"MONITOR-2 (RS39S)","OBJECT_ID":"2023-091U","EPOCH":"2026-03-09T22:29:03.497856","MEAN_MOTION":15.17917968,"ECCENTRICITY":0.00130556,"INCLINATION":97.5198,"RA_OF_ASC_NODE":127.8703,"ARG_OF_PERICENTER":98.0854,"MEAN_ANOMALY":262.1862,"EPHEMERIS_TYPE":0,"CLASSIFICATION_TYPE":"U","NORAD_CAT_ID":57184,"ELEMENT_SET_NO":999,"REV_AT_EPOCH":14889,"BSTAR":0.00030772379,"MEAN_MOTION_DOT":6.188e-5,"MEAN_MOTION_DDOT":0},{"OBJECT_NAME":"GALAPAGOS-UTE-SWSU","OBJECT_ID":"2025-313AH","EPOCH":"2026-03-09T22:34:20.965152","MEAN_MOTION":15.21376357,"ECCENTRICITY":0.00141435,"INCLINATION":97.3994,"RA_OF_ASC_NODE":145.1857,"ARG_OF_PERICENTER":358.5114,"MEAN_ANOMALY":1.6077,"EPHEMERIS_TYPE":0,"CLASSIFICATION_TYPE":"U","NORAD_CAT_ID":67279,"ELEMENT_SET_NO":999,"REV_AT_EPOCH":1085,"BSTAR":0.00042377017,"MEAN_MOTION_DOT":9.461e-5,"MEAN_MOTION_DDOT":0}]
